NORAD_CAT_ID,OBJECT_NAME,OBJECT_TYPE,EPOCH,MEAN_MOTION,ECCENTRICITY,INCLINATION,RA_OF_ASC_NODE,ARG_OF_PERICENTER,MEAN_ANOMALY,BSTAR,MEAN_MOTION_DOT,MEAN_MOTION_DDOT,TLE_LINE0,TLE_LINE1,TLE_LINE2,SEMIMAJOR_AXIS,PERIOD,APOGEE,PERIGEE,DECAYED
55287.0,STARLINK-5341,PAYLOAD,2024-06-12 06:11:38,14.98329589,0.0003153,69.9986,166.802,268.745,91.3347,2.1366e-05,1.62e-06,0.0,0 STARLINK-5341,1 55287U 23010U   24164.25808758  .00000162  00000-0  21366-4 0  9994,2 55287  69.9986 166.8020 0003153 268.7450  91.3347 14.98329589 78261,6950.194,96.107,574.251,569.868,0.0
55287.0,STARLINK-5341,PAYLOAD,2024-06-12 17:24:35,14.98329392,0.0003151,69.9986,165.6237,268.8789,91.2009,2.1939e-05,1.69e-06,0.0,0 STARLINK-5341,1 55287U 23010U   24164.72540752  .00000169  00000-0  21939-4 0  9996,2 55287  69.9986 165.6237 0003151 268.8789  91.2009 14.98329392 78640,6950.195,96.107,574.25,569.87,0.0
55287.0,STARLINK-5341,PAYLOAD,2024-06-13 09:25:55,14.98330152,0.0003139,69.9986,163.9405,268.727,91.3529,2.436e-05,1.98e-06,0.0,0 STARLINK-5341,1 55287U 23010U   24165.39300709  .00000198  00000-0  24360-4 0  9999,2 55287  69.9986 163.9405 0003139 268.7270  91.3529 14.98330152 78439,6950.192,96.107,574.239,569.876,0.0
55287.0,STARLINK-5341,PAYLOAD,2024-06-13 17:26:36,14.98330113,0.0003176,69.9985,163.0987,269.2362,90.8433,2.4045e-05,1.94e-06,0.0,0 STARLINK-5341,1 55287U 23010U   24165.72680687  .00000194  00000-0  24045-4 0  9998,2 55287  69.9985 163.0987 0003176 269.2362  90.8433 14.98330113 78797,6950.193,96.107,574.265,569.85,0.0
55287.0,STARLINK-5341,PAYLOAD,2024-06-14 09:27:56,14.98329743,0.0003192,69.9985,161.4154,268.9658,91.1135,4.4339e-05,4.36e-06,0.0,0 STARLINK-5341,1 55287U 23010U   24166.39440706  .00000436  00000-0  44339-4 0  9995,2 55287  69.9985 161.4154 0003192 268.9658  91.1135 14.98329743 78898,6950.194,96.107,574.277,569.84,0.0
55287.0,STARLINK-5341,PAYLOAD,2024-06-14 22:17:01,14.98332606,0.0003193,69.9986,160.0687,268.8691,91.2102,7.336e-05,7.82e-06,0.0,0 STARLINK-5341,1 55287U 23010U   24166.92848420  .00000782  00000-0  73360-4 0  9999,2 55287  69.9986 160.0687 0003193 268.8691  91.2102 14.98332606 78978,6950.185,96.107,574.269,569.831,0.0
55287.0,STARLINK-5341,PAYLOAD,2024-06-15 09:29:57,14.98335461,0.0003187,69.9986,158.8904,268.8593,91.2201,9.0552e-05,9.88e-06,0.0,0 STARLINK-5341,1 55287U 23010U   24167.39580120  .00000988  00000-0  90552-4 0  9991,2 55287  69.9986 158.8904 0003187 268.8593  91.2201 14.98335461 79040,6950.176,96.107,574.256,569.826,0.0
55287.0,STARLINK-5341,PAYLOAD,2024-06-16 09:32:01,14.98305501,0.0003216,69.9985,156.3663,269.0006,91.0785,-0.00020467,-2.533e-05,0.0,0 STARLINK-5341,1 55287U 23010U   24168.39723670 -.00002533  00000-0 -20467-3 0  9998,2 55287  69.9985 156.3663 0003216 269.0006  91.0785 14.98305501 79192,6950.269,96.109,574.369,569.898,0.0
55287.0,STARLINK-5341,PAYLOAD,2024-06-16 15:56:33,14.9831491,0.0003235,69.9988,155.6928,267.7982,92.2807,-0.00010847,-1.387e-05,0.0,0 STARLINK-5341,1 55287U 23010U   24168.66427094 -.00001387  00000-0 -10847-3 0  9996,2 55287  69.9988 155.6928 0003235 267.7982  92.2807 14.98314910 79237,6950.24,96.108,574.353,569.856,0.0
55287.0,STARLINK-5341,PAYLOAD,2024-06-17 15:58:32,14.98338073,0.0003532,69.9978,153.1661,274.992,85.0836,8.7597e-05,9.52e-06,0.0,0 STARLINK-5341,1 55287U 23010U   24169.66565323  .00000952  00000-0  87597-4 0  9997,2 55287  69.9978 153.1661 0003532 274.9920  85.0836 14.98338073 79389,6950.168,96.106,574.488,569.578,0.0
55287.0,STARLINK-5341,PAYLOAD,2024-06-18 04:47:37,14.9832522,0.0003527,69.998,151.8198,276.8137,83.2621,0.00034069,3.974e-05,0.0,0 STARLINK-5341,1 55287U 23010U   24170.19973817  .00003974  00000-0  34069-3 0  9990,2 55287  69.9980 151.8198 0003527 276.8137  83.2621 14.98325220 79154,6950.208,96.107,574.524,569.621,0.0
55287.0,STARLINK-5341,PAYLOAD,2024-06-18 09:36:01,14.98331812,0.0003485,69.9981,151.3149,276.3141,83.7621,0.00040769,4.775e-05,0.0,0 STARLINK-5341,1 55287U 23010U   24170.40001425  .00004775  00000-0  40769-3 0  9995,2 55287  69.9981 151.3149 0003485 276.3141  83.7621 14.98331812 79495,6950.187,96.107,574.474,569.63,0.0
55287.0,STARLINK-5341,PAYLOAD,2024-06-18 16:00:33,14.9833688,0.0003484,69.9981,150.6422,273.5218,86.5543,0.00033849,3.949e-05,0.0,0 STARLINK-5341,1 55287U 23010U   24170.66705190  .00003949  00000-0  33849-3 0  9996,2 55287  69.9981 150.6422 0003484 273.5218  86.5543 14.98336880 79229,6950.172,96.107,574.458,569.615,0.0
55287.0,STARLINK-5341,PAYLOAD,2024-06-19 08:01:53,14.9835052,0.0003259,69.9987,148.9594,273.3875,86.6911,0.00018739,2.145e-05,0.0,0 STARLINK-5341,1 55287U 23010U   24171.33464163  .00002145  00000-0  18739-3 0  9991,2 55287  69.9987 148.9594 0003259 273.3875  86.6911 14.98350520 79320,6950.129,96.106,574.259,569.729,0.0
55287.0,STARLINK-5341,PAYLOAD,2024-06-19 16:02:32,14.98352359,0.0003267,69.9988,148.1177,273.3546,86.7239,0.0001712,1.951e-05,0.0,0 STARLINK-5341,1 55287U 23010U   24171.66843640  .00001951  00000-0  17120-3 0  9995,2 55287  69.9988 148.1177 0003267 273.3546  86.7239 14.98352359 79689,6950.124,96.106,574.259,569.718,0.0
55287.0,STARLINK-5341,PAYLOAD,2024-06-20 04:51:38,14.98337156,0.0003065,69.9993,146.7716,272.1367,87.9441,-4.055e-05,-5.77e-06,0.0,0 STARLINK-5341,1 55287U 23010U   24172.20252765 -.00000577  00000-0 -40550-4 0  9997,2 55287  69.9993 146.7716 0003065 272.1367  87.9441 14.98337156 79453,6950.171,96.107,574.166,569.906,0.0
55287.0,STARLINK-5341,PAYLOAD,2024-06-20 08:03:54,14.98334179,0.0003093,69.9992,146.4345,271.0048,89.0757,-8.0519e-05,-1.054e-05,0.0,0 STARLINK-5341,1 55287U 23010U   24172.33604951 -.00001054  00000-0 -80519-4 0  9999,2 55287  69.9992 146.4345 0003093 271.0048  89.0757 14.98334179 79783,6950.18,96.107,574.195,569.895,0.0
55287.0,STARLINK-5341,PAYLOAD,2024-06-20 16:04:34,14.98338523,0.0003091,69.9994,145.5925,273.111,86.9696,-4.9769e-05,-6.87e-06,0.0,0 STARLINK-5341,1 55287U 23010U   24172.66984458 -.00000687  00000-0 -49769-4 0  9991,2 55287  69.9994 145.5925 0003091 273.1110  86.9696 14.98338523 79831,6950.167,96.106,574.18,569.883,0.0
55287.0,STARLINK-5341,PAYLOAD,2024-06-21 04:53:38,14.98338473,0.0003019,69.9993,144.2456,269.04,91.0413,-4.8883e-05,-6.76e-06,0.0,0 STARLINK-5341,1 55287U 23010U   24173.20392104 -.00000676  00000-0 -48883-4 0  9997,2 55287  69.9993 144.2456 0003019 269.0400  91.0413 14.98338473 79604,6950.167,96.106,574.13,569.933,0.0
55287.0,STARLINK-5341,PAYLOAD,2024-06-21 08:05:54,14.98339091,0.0003018,69.9994,143.909,269.2323,90.849,-4.0724e-05,-5.79e-06,0.0,0 STARLINK-5341,1 55287U 23010U   24173.33743966 -.00000579  00000-0 -40724-4 0  9995,2 55287  69.9994 143.9090 0003018 269.2323  90.8490 14.98339091 79935,6950.165,96.106,574.127,569.932,0.0
55287.0,STARLINK-5341,PAYLOAD,2024-06-21 22:31:07,14.98327628,0.0003131,69.9991,142.3945,269.2059,90.8742,4.7157e-05,4.7e-06,0.0,0 STARLINK-5341,1 55287U 23010U   24173.93828345  .00000470  00000-0  47157-4 0  9991,2 55287  69.9991 142.3945 0003131 269.2059  90.8742 14.98327628 80021,6950.2,96.107,574.241,569.889,0.0
55287.0,STARLINK-5341,PAYLOAD,2024-06-22 01:43:23,14.98327265,0.0003145,69.9991,142.058,269.3422,90.7376,4.2406e-05,4.13e-06,0.0,0 STARLINK-5341,1 55287U 23010U   24174.07180400  .00000413  00000-0  42406-4 0  9999,2 55287  69.9991 142.0580 0003145 269.3422  90.7376 14.98327265 79738,6950.201,96.107,574.252,569.881,0.0
55287.0,STARLINK-5341,PAYLOAD,2024-06-22 08:07:56,14.98328678,0.0003118,69.9991,141.3847,268.9831,91.0971,4.6282e-05,4.59e-06,0.0,0 STARLINK-5341,1 55287U 23010U   24174.33884340  .00000459  00000-0  46282-4 0  9998,2 55287  69.9991 141.3847 0003118 268.9831  91.0971 14.98328678 80089,6950.197,96.107,574.229,569.895,0.0
55287.0,STARLINK-5341,PAYLOAD,2024-06-22 22:33:08,14.98331477,0.0003049,69.9992,139.8701,270.1396,89.9414,2.4366e-05,1.98e-06,0.0,0 STARLINK-5341,1 55287U 23010U   24174.93968282  .00000198  00000-0  24366-4 0  9991,2 55287  69.9992 139.8701 0003049 270.1396  89.9414 14.98331477 80174,6950.188,96.107,574.172,569.934,0.0
55287.0,STARLINK-5341,PAYLOAD,2024-06-23 04:57:40,14.98331758,0.0003054,69.9991,139.1967,270.0068,90.0741,2.6453e-05,2.23e-06,0.0,0 STARLINK-5341,1 55287U 23010U   24175.20672239  .00000223  00000-0  26453-4 0  9994,2 55287  69.9991 139.1967 0003054 270.0068  90.0741 14.98331758 79908,6950.187,96.107,574.175,569.93,0.0
55287.0,STARLINK-5341,PAYLOAD,2024-06-23 08:09:56,14.98333391,0.000304,69.9993,138.8601,270.1345,89.9466,4.4066e-05,4.33e-06,0.0,0 STARLINK-5341,1 55287U 23010U   24175.34024075  .00000433  00000-0  44066-4 0  9991,2 55287  69.9993 138.8601 0003040 270.1345  89.9466 14.98333391 80239,6950.182,96.107,574.16,569.935,0.0
55287.0,STARLINK-5341,PAYLOAD,2024-06-23 22:35:09,14.98330274,0.000299,69.9993,137.3454,266.9697,93.112,7.4192e-05,7.92e-06,0.0,0 STARLINK-5341,1 55287U 23010U   24175.94108109  .00000792  00000-0  74192-4 0  9999,2 55287  69.9993 137.3454 0002990 266.9697  93.1120 14.98330274 80326,6950.192,96.107,574.135,569.979,0.0
55287.0,STARLINK-5341,PAYLOAD,2024-06-24 08:11:57,14.98333479,0.0002938,69.9993,136.3355,264.8073,95.2751,0.00010557,1.167e-05,0.0,0 STARLINK-5341,1 55287U 23010U   24176.34163802  .00001167  00000-0  10557-3 0  9996,2 55287  69.9993 136.3355 0002938 264.8073  95.2751 14.98333479 80077,6950.182,96.107,574.089,570.005,0.0
55287.0,STARLINK-5341,PAYLOAD,2024-06-25 05:01:42,14.98328346,0.0002741,69.9998,134.1479,258.6676,101.4175,2.7066e-05,2.3e-06,0.0,0 STARLINK-5341,1 55287U 23010U   24177.20952332  .00000230  00000-0  27066-4 0  9990,2 55287  69.9998 134.1479 0002741 258.6676 101.4175 14.98328346 80209,6950.198,96.107,573.968,570.158,0.0
55287.0,STARLINK-5341,PAYLOAD,2024-06-25 06:37:50,14.98328596,0.0002735,69.9998,133.9796,258.434,101.6512,2.9391e-05,2.58e-06,0.0,0 STARLINK-5341,1 55287U 23010U   24177.27628315  .00000258  00000-0  29391-4 0  9991,2 55287  69.9998 133.9796 0002735 258.4340 101.6512 14.98328596 80526,6950.197,96.107,573.963,570.161,0.0
